QIANFAN-65              
1 62795U 25016L   26200.80943635  .00000071  00000+0  91071-4 0  9990
2 62795  88.9694  80.3038 0016001  71.2599 289.0287 13.51030695 76820
QIANFAN-66              
1 62796U 25016M   26200.83836337  .00000078  00000+0  10241-3 0  9990
2 62796  88.9713  80.3141 0017072  67.3042 292.9912 13.51023887 76874
QIANFAN-67              
1 62797U 25016N   26200.84250058  .00000088  00000+0  11756-3 0  9995
2 62797  88.9704  80.3177 0017079  73.3444 286.9581 13.51012565 76847
QIANFAN-68              
1 62798U 25016P   26200.83406249  .00000069  00000+0  88541-4 0  9996
2 62798  88.9707  80.3715 0017146  71.4949 288.8063 13.51025239 76829
QIANFAN-69              
1 62799U 25016Q   26200.85053147  .00000075  00000+0  96717-4 0  9995
2 62799  88.9686  80.1925 0017886  72.7033 287.6073 13.51019098 76864
QIANFAN-70              
1 62800U 25016R   26200.86706738  .00000075  00000+0  96852-4 0  9990
2 62800  88.9707  80.3750 0017428  64.1517 296.1429 13.51017485 76827
QIANFAN-71              
1 62801U 25016S   26200.86307203  .00000062  00000+0  77349-4 0  9991
2 62801  88.9701  80.3417 0017805  75.8119 284.5008 13.51021437 76824
QIANFAN-72              
1 62802U 25016T   26200.87937593  .00000073  00000+0  94528-4 0  9994
2 62802  88.9691  80.3320 0021068  82.1948 278.1594 13.51014961 76815
QIANFAN-73              
1 63159U 25046A   26200.83229569  .00000024  00000+0  18576-4 0  9991
2 63159  88.9721 297.2920 0014573 201.9784 158.0743 13.51015514 76998
QIANFAN-74              
1 63160U 25046B   26200.81599985  .00000115  00000+0  15942-3 0  9997
2 63160  88.9723 297.1834 0002539 104.5590 255.5842 13.51023755 77054
QIANFAN-75              
1 63161U 25046C   26200.80360986  .00000082  00000+0  10779-3 0  9990
2 63161  88.9724 297.4213 0015549 205.5610 154.4774 13.51015973 76929
QIANFAN-76              
1 63162U 25046D   26200.79944733  .00000107  00000+0  14740-3 0  9997
2 63162  88.9724 297.4017 0013080 204.5495 155.5035 13.51015299 76934
QIANFAN-77              
1 63163U 25046E   26200.77770613  .00000190  00000+0  12809-3 0  9996
2 63163  88.9725 293.6068 0017331 115.0851 245.2126 13.96223647 79012
QIANFAN-78              
1 63164U 25046F   26200.84065786  .00000109  00000+0  14935-3 0  9995
2 63164  88.9723 297.2592 0014362 207.4241 152.6154 13.51010593 77018
QIANFAN-79              
1 63165U 25046G   26200.79531883  .00000104  00000+0  14172-3 0  9994
2 63165  88.9726 297.3794 0014205 205.9574 154.0866 13.51020612 76956
QIANFAN-80              
1 63166U 25046H   26200.81187775  .00000122  00000+0  17088-3 0  9994
2 63166  88.9723 297.0787 0012892 209.7667 150.2752 13.51017671 77110
