{"fetched_at":"2026-07-20T07:40:27.080Z","source":"https://celestrak.org/NORAD/elements/gp.php?GROUP=qianfan&FORMAT=JSON","constellation":"qianfan","records":[{"OBJECT_NAME":"QIANFAN-65","OBJECT_ID":"2025-016L","EPOCH":"2026-07-19T19:25:35.300640","CLASSIFICATION_TYPE":"U","MEAN_MOTION":13.51030695,"ECCENTRICITY":0.0016001,"INCLINATION":88.9694,"RA_OF_ASC_NODE":80.3038,"ARG_OF_PERICENTER":71.2599,"MEAN_ANOMALY":289.0287,"EPHEMERIS_TYPE":0,"NORAD_CAT_ID":62795,"ELEMENT_SET_NO":999,"REV_AT_EPOCH":7682,"BSTAR":0.000091071,"MEAN_MOTION_DOT":7.1e-7,"MEAN_MOTION_DDOT":0},{"OBJECT_NAME":"QIANFAN-66","OBJECT_ID":"2025-016M","EPOCH":"2026-07-19T20:07:14.595168","CLASSIFICATION_TYPE":"U","MEAN_MOTION":13.51023887,"ECCENTRICITY":0.0017072,"INCLINATION":88.9713,"RA_OF_ASC_NODE":80.3141,"ARG_OF_PERICENTER":67.3042,"MEAN_ANOMALY":292.9912,"EPHEMERIS_TYPE":0,"NORAD_CAT_ID":62796,"ELEMENT_SET_NO":999,"REV_AT_EPOCH":7687,"BSTAR":0.00010241,"MEAN_MOTION_DOT":7.8e-7,"MEAN_MOTION_DDOT":0},{"OBJECT_NAME":"QIANFAN-67","OBJECT_ID":"2025-016N","EPOCH":"2026-07-19T20:13:12.050112","CLASSIFICATION_TYPE":"U","MEAN_MOTION":13.51012565,"ECCENTRICITY":0.0017079,"INCLINATION":88.9704,"RA_OF_ASC_NODE":80.3177,"ARG_OF_PERICENTER":73.3444,"MEAN_ANOMALY":286.9581,"EPHEMERIS_TYPE":0,"NORAD_CAT_ID":62797,"ELEMENT_SET_NO":999,"REV_AT_EPOCH":7684,"BSTAR":0.00011756,"MEAN_MOTION_DOT":8.8e-7,"MEAN_MOTION_DDOT":0},{"OBJECT_NAME":"QIANFAN-68","OBJECT_ID":"2025-016P","EPOCH":"2026-07-19T20:01:02.999136","CLASSIFICATION_TYPE":"U","MEAN_MOTION":13.51025239,"ECCENTRICITY":0.0017146,"INCLINATION":88.9707,"RA_OF_ASC_NODE":80.3715,"ARG_OF_PERICENTER":71.4949,"MEAN_ANOMALY":288.8063,"EPHEMERIS_TYPE":0,"NORAD_CAT_ID":62798,"ELEMENT_SET_NO":999,"REV_AT_EPOCH":7682,"BSTAR":0.000088541,"MEAN_MOTION_DOT":6.9e-7,"MEAN_MOTION_DDOT":0},{"OBJECT_NAME":"QIANFAN-69","OBJECT_ID":"2025-016Q","EPOCH":"2026-07-19T20:24:45.919008","CLASSIFICATION_TYPE":"U","MEAN_MOTION":13.51019098,"ECCENTRICITY":0.0017886,"INCLINATION":88.9686,"RA_OF_ASC_NODE":80.1925,"ARG_OF_PERICENTER":72.7033,"MEAN_ANOMALY":287.6073,"EPHEMERIS_TYPE":0,"NORAD_CAT_ID":62799,"ELEMENT_SET_NO":999,"REV_AT_EPOCH":7686,"BSTAR":0.000096717,"MEAN_MOTION_DOT":7.5e-7,"MEAN_MOTION_DDOT":0},{"OBJECT_NAME":"QIANFAN-70","OBJECT_ID":"2025-016R","EPOCH":"2026-07-19T20:48:34.621632","CLASSIFICATION_TYPE":"U","MEAN_MOTION":13.51017485,"ECCENTRICITY":0.0017428,"INCLINATION":88.9707,"RA_OF_ASC_NODE":80.375,"ARG_OF_PERICENTER":64.1517,"MEAN_ANOMALY":296.1429,"EPHEMERIS_TYPE":0,"NORAD_CAT_ID":62800,"ELEMENT_SET_NO":999,"REV_AT_EPOCH":7682,"BSTAR":0.000096852,"MEAN_MOTION_DOT":7.5e-7,"MEAN_MOTION_DDOT":0},{"OBJECT_NAME":"QIANFAN-71","OBJECT_ID":"2025-016S","EPOCH":"2026-07-19T20:42:49.423392","CLASSIFICATION_TYPE":"U","MEAN_MOTION":13.51021437,"ECCENTRICITY":0.0017805,"INCLINATION":88.9701,"RA_OF_ASC_NODE":80.3417,"ARG_OF_PERICENTER":75.8119,"MEAN_ANOMALY":284.5008,"EPHEMERIS_TYPE":0,"NORAD_CAT_ID":62801,"ELEMENT_SET_NO":999,"REV_AT_EPOCH":7682,"BSTAR":0.000077349,"MEAN_MOTION_DOT":6.2e-7,"MEAN_MOTION_DDOT":0},{"OBJECT_NAME":"QIANFAN-72","OBJECT_ID":"2025-016T","EPOCH":"2026-07-19T21:06:18.080352","CLASSIFICATION_TYPE":"U","MEAN_MOTION":13.51014961,"ECCENTRICITY":0.0021068,"INCLINATION":88.9691,"RA_OF_ASC_NODE":80.332,"ARG_OF_PERICENTER":82.1948,"MEAN_ANOMALY":278.1594,"EPHEMERIS_TYPE":0,"NORAD_CAT_ID":62802,"ELEMENT_SET_NO":999,"REV_AT_EPOCH":7681,"BSTAR":0.000094528,"MEAN_MOTION_DOT":7.3e-7,"MEAN_MOTION_DDOT":0},{"OBJECT_NAME":"QIANFAN-73","OBJECT_ID":"2025-046A","EPOCH":"2026-07-19T19:58:30.347616","CLASSIFICATION_TYPE":"U","MEAN_MOTION":13.51015514,"ECCENTRICITY":0.0014573,"INCLINATION":88.9721,"RA_OF_ASC_NODE":297.292,"ARG_OF_PERICENTER":201.9784,"MEAN_ANOMALY":158.0743,"EPHEMERIS_TYPE":0,"NORAD_CAT_ID":63159,"ELEMENT_SET_NO":999,"REV_AT_EPOCH":7699,"BSTAR":0.000018576,"MEAN_MOTION_DOT":2.4e-7,"MEAN_MOTION_DDOT":0},{"OBJECT_NAME":"QIANFAN-74","OBJECT_ID":"2025-046B","EPOCH":"2026-07-19T19:35:02.387040","CLASSIFICATION_TYPE":"U","MEAN_MOTION":13.51023755,"ECCENTRICITY":0.0002539,"INCLINATION":88.9723,"RA_OF_ASC_NODE":297.1834,"ARG_OF_PERICENTER":104.559,"MEAN_ANOMALY":255.5842,"EPHEMERIS_TYPE":0,"NORAD_CAT_ID":63160,"ELEMENT_SET_NO":999,"REV_AT_EPOCH":7705,"BSTAR":0.00015942,"MEAN_MOTION_DOT":0.00000115,"MEAN_MOTION_DDOT":0},{"OBJECT_NAME":"QIANFAN-75","OBJECT_ID":"2025-046C","EPOCH":"2026-07-19T19:17:11.891904","CLASSIFICATION_TYPE":"U","MEAN_MOTION":13.51015973,"ECCENTRICITY":0.0015549,"INCLINATION":88.9724,"RA_OF_ASC_NODE":297.4213,"ARG_OF_PERICENTER":205.561,"MEAN_ANOMALY":154.4774,"EPHEMERIS_TYPE":0,"NORAD_CAT_ID":63161,"ELEMENT_SET_NO":999,"REV_AT_EPOCH":7692,"BSTAR":0.00010779,"MEAN_MOTION_DOT":8.2e-7,"MEAN_MOTION_DDOT":0},{"OBJECT_NAME":"QIANFAN-76","OBJECT_ID":"2025-046D","EPOCH":"2026-07-19T19:11:12.249312","CLASSIFICATION_TYPE":"U","MEAN_MOTION":13.51015299,"ECCENTRICITY":0.001308,"INCLINATION":88.9724,"RA_OF_ASC_NODE":297.4017,"ARG_OF_PERICENTER":204.5495,"MEAN_ANOMALY":155.5035,"EPHEMERIS_TYPE":0,"NORAD_CAT_ID":63162,"ELEMENT_SET_NO":999,"REV_AT_EPOCH":7693,"BSTAR":0.0001474,"MEAN_MOTION_DOT":0.00000107,"MEAN_MOTION_DDOT":0},{"OBJECT_NAME":"QIANFAN-77","OBJECT_ID":"2025-046E","EPOCH":"2026-07-19T18:39:53.809632","CLASSIFICATION_TYPE":"U","MEAN_MOTION":13.96223647,"ECCENTRICITY":0.0017331,"INCLINATION":88.9725,"RA_OF_ASC_NODE":293.6068,"ARG_OF_PERICENTER":115.0851,"MEAN_ANOMALY":245.2126,"EPHEMERIS_TYPE":0,"NORAD_CAT_ID":63163,"ELEMENT_SET_NO":999,"REV_AT_EPOCH":7901,"BSTAR":0.00012809,"MEAN_MOTION_DOT":0.0000019,"MEAN_MOTION_DDOT":0},{"OBJECT_NAME":"QIANFAN-78","OBJECT_ID":"2025-046F","EPOCH":"2026-07-19T20:10:32.839104","CLASSIFICATION_TYPE":"U","MEAN_MOTION":13.51010593,"ECCENTRICITY":0.0014362,"INCLINATION":88.9723,"RA_OF_ASC_NODE":297.2592,"ARG_OF_PERICENTER":207.4241,"MEAN_ANOMALY":152.6154,"EPHEMERIS_TYPE":0,"NORAD_CAT_ID":63164,"ELEMENT_SET_NO":999,"REV_AT_EPOCH":7701,"BSTAR":0.00014935,"MEAN_MOTION_DOT":0.00000109,"MEAN_MOTION_DDOT":0},{"OBJECT_NAME":"QIANFAN-79","OBJECT_ID":"2025-046G","EPOCH":"2026-07-19T19:05:15.546912","CLASSIFICATION_TYPE":"U","MEAN_MOTION":13.51020612,"ECCENTRICITY":0.0014205,"INCLINATION":88.9726,"RA_OF_ASC_NODE":297.3794,"ARG_OF_PERICENTER":205.9574,"MEAN_ANOMALY":154.0866,"EPHEMERIS_TYPE":0,"NORAD_CAT_ID":63165,"ELEMENT_SET_NO":999,"REV_AT_EPOCH":7695,"BSTAR":0.00014172,"MEAN_MOTION_DOT":0.00000104,"MEAN_MOTION_DDOT":0},{"OBJECT_NAME":"QIANFAN-80","OBJECT_ID":"2025-046H","EPOCH":"2026-07-19T19:29:06.237600","CLASSIFICATION_TYPE":"U","MEAN_MOTION":13.51017671,"ECCENTRICITY":0.0012892,"INCLINATION":88.9723,"RA_OF_ASC_NODE":297.0787,"ARG_OF_PERICENTER":209.7667,"MEAN_ANOMALY":150.2752,"EPHEMERIS_TYPE":0,"NORAD_CAT_ID":63166,"ELEMENT_SET_NO":999,"REV_AT_EPOCH":7711,"BSTAR":0.00017088,"MEAN_MOTION_DOT":0.00000122,"MEAN_MOTION_DDOT":0}]}
